start=new Date('2023-07-04T00:00:00.000Z').valueOf();
sats=[{"MEAN_MOTION":"15.08839252","ELEMENT_SET_NO":"999","SEMIMAJOR_AXIS":"6917.883","MEAN_ANOMALY":"274.2997","MEAN_MOTION_DDOT":"0.0000000000000","MEAN_MOTION_DOT":"0.00000660","CENTER_NAME":"EARTH","PERIAPSIS":"538.963","LAUNCH_DATE":"2022-03-19","EPOCH":"2023-07-03T05:56:27.827520","COUNTRY_CODE":"US","OBJECT_TYPE":"PAYLOAD","FILE":"3948335","TLE_LINE1":"1 52115U 22029AD  23184.24754430  .00000660  00000-0  59564-4 0  9991","RCS_SIZE":"LARGE","REV_AT_EPOCH":"7277","GP_ID":"234689577","REF_FRAME":"TEME","SITE":"AFETR","PERIOD":"95.438","ARG_OF_PERICENTER":"85.8125","TIME_SYSTEM":"UTC","ECCENTRICITY":"0.00011340","OBJECT_NAME":"STARLINK-3685","DECAY_DATE":null,"INCLINATION":"53.2167","NORAD_CAT_ID":"52115","MEAN_ELEMENT_THEORY":"SGP4","OBJECT_ID":"2022-029AD","CLASSIFICATION_TYPE":"U","EPHEMERIS_TYPE":"0","TLE_LINE2":"2 52115  53.2167 160.4973 0001134  85.8125 274.2997 15.08839252 72774","APOAPSIS":"540.532","RA_OF_ASC_NODE":"160.4973","BSTAR":"0.00005956400000"},{"NORAD_CAT_ID":"52116","MEAN_ELEMENT_THEORY":"SGP4","INCLINATION":"53.2165","DECAY_DATE":null,"OBJECT_NAME":"STARLINK-3735","BSTAR":"-0.00001117500000","RA_OF_ASC_NODE":"161.6323","APOAPSIS":"540.635","TLE_LINE2":"2 52116  53.2165 161.6323 0001309  85.6576 274.4565 15.08845223 72731","EPHEMERIS_TYPE":"0","OBJECT_ID":"2022-029AE","CLASSIFICATION_TYPE":"U","OBJECT_TYPE":"PAYLOAD","COUNTRY_CODE":"US","EPOCH":"2023-07-02T23:50:49.327008","LAUNCH_DATE":"2022-03-19","PERIAPSIS":"538.824","CENTER_NAME":"EARTH","MEAN_MOTION_DOT":"-0.00000466","MEAN_MOTION_DDOT":"0.0000000000000","MEAN_ANOMALY":"274.4565","ELEMENT_SET_NO":"999","SEMIMAJOR_AXIS":"6917.864","MEAN_MOTION":"15.08845223","ECCENTRICITY":"0.00013090","ARG_OF_PERICENTER":"85.6576","PERIOD":"95.437","TIME_SYSTEM":"UTC","SITE":"AFETR","REF_FRAME":"TEME","GP_ID":"234681759","TLE_LINE1":"1 52116U 22029AE  23183.99362647 -.00000466  00000-0 -11175-4 0  9990","RCS_SIZE":"LARGE","REV_AT_EPOCH":"7273","FILE":"3948030"},{"SEMIMAJOR_AXIS":"6917.908","ELEMENT_SET_NO":"999","MEAN_MOTION":"15.08830866","MEAN_MOTION_DDOT":"0.0000000000000","MEAN_ANOMALY":"275.5776","EPOCH":"2023-07-02T23:24:19.768320","MEAN_MOTION_DOT":"0.00000197","CENTER_NAME":"EARTH","LAUNCH_DATE":"2022-03-19","PERIAPSIS":"539.012","OBJECT_TYPE":"PAYLOAD","COUNTRY_CODE":"US","FILE":"3948030","TLE_LINE1":"1 52117U 22029AF  23183.97522880  .00000197  00000-0  30492-4 0  9998","REV_AT_EPOCH":"7274","RCS_SIZE":"LARGE","REF_FRAME":"TEME","GP_ID":"234681758","ECCENTRICITY":"0.00011010","SITE":"AFETR","PERIOD":"95.438","ARG_OF_PERICENTER":"84.5342","TIME_SYSTEM":"UTC","OBJECT_NAME":"STARLINK-3738","DECAY_DATE":null,"MEAN_ELEMENT_THEORY":"SGP4","NORAD_CAT_ID":"52117","INCLINATION":"53.2163","EPHEMERIS_TYPE":"0","TLE_LINE2":"2 52117  53.2163 161.7190 0001101  84.5342 275.5776 15.08830866 72746","CLASSIFICATION_TYPE":"U","OBJECT_ID":"2022-029AF","RA_OF_ASC_NODE":"161.7190","APOAPSIS":"540.535","BSTAR":"0.00003049200000"},{"APOAPSIS":"540.563","RA_OF_ASC_NODE":"159.8821","BSTAR":"0.00007249400000","OBJECT_ID":"2022-029AG","CLASSIFICATION_TYPE":"U","EPHEMERIS_TYPE":"0","TLE_LINE2":"2 52118  53.2164 159.8821 0001179  86.2322 273.8805 15.08839218 72798","INCLINATION":"53.2164","NORAD_CAT_ID":"52118","MEAN_ELEMENT_THEORY":"SGP4","OBJECT_NAME":"STARLINK-3743","DECAY_DATE":null,"GP_ID":"234689340","REF_FRAME":"TEME","SITE":"AFETR","PERIOD":"95.438","ARG_OF_PERICENTER":"86.2322","TIME_SYSTEM":"UTC","ECCENTRICITY":"0.00011790","FILE":"3948336","TLE_LINE1":"1 52118U 22029AG  23184.38370573  .00000866  00000-0  72494-4 0  9996","RCS_SIZE":"LARGE","REV_AT_EPOCH":"7279","CENTER_NAME":"EARTH","MEAN_MOTION_DOT":"0.00000866","LAUNCH_DATE":"2022-03-19","PERIAPSIS":"538.932","EPOCH":"2023-07-03T09:12:32.175072","COUNTRY_CODE":"US","OBJECT_TYPE":"PAYLOAD","MEAN_MOTION":"15.08839218","SEMIMAJOR_AXIS":"6917.883","ELEMENT_SET_NO":"999","MEAN_ANOMALY":"273.8805","MEAN_MOTION_DDOT":"0.0000000000000"},{"OBJECT_NAME":"STARLINK-3558","DECAY_DATE":null,"INCLINATION":"53.2163","NORAD_CAT_ID":"52119","MEAN_ELEMENT_THEORY":"SGP4","OBJECT_ID":"2022-029AH","CLASSIFICATION_TYPE":"U","EPHEMERIS_TYPE":"0","TLE_LINE2":"2 52119  53.2163 163.2384 0001176  88.9949 271.1178 15.08835449 72697","BSTAR":"0.00001134600000","APOAPSIS":"540.573","RA_OF_ASC_NODE":"163.2384","MEAN_ANOMALY":"271.1178","MEAN_MOTION_DDOT":"0.0000000000000","MEAN_MOTION":"15.08835449","ELEMENT_SET_NO":"999","SEMIMAJOR_AXIS":"6917.894","COUNTRY_CODE":"US","OBJECT_TYPE":"PAYLOAD","MEAN_MOTION_DOT":"-0.00000107","CENTER_NAME":"EARTH","LAUNCH_DATE":"2022-03-19","PERIAPSIS":"538.946","EPOCH":"2023-07-02T15:16:47.897472","REV_AT_EPOCH":"7269","TLE_LINE1":"1 52119U 22029AH  23183.63666548 -.00000107  00000-0  11346-4 0  9992","RCS_SIZE":"LARGE","FILE":"3947817","SITE":"AFETR","TIME_SYSTEM":"UTC","PERIOD":"95.438","ARG_OF_PERICENTER":"88.9949","ECCENTRICITY":"0.00011760","GP_ID":"234676191","REF_FRAME":"TEME"},{"ECCENTRICITY":"0.00010700","PERIOD":"95.438","TIME_SYSTEM":"UTC","ARG_OF_PERICENTER":"90.2253","SITE":"AFETR","REF_FRAME":"TEME","GP_ID":"234696808","TLE_LINE1":"1 52120U 22029AJ  23184.64130743  .00000809  00000-0  68892-4 0  9995","RCS_SIZE":"LARGE","REV_AT_EPOCH":"7284","FILE":"3948744","OBJECT_TYPE":"PAYLOAD","COUNTRY_CODE":"US","EPOCH":"2023-07-03T15:23:28.961952","PERIAPSIS":"539.017","LAUNCH_DATE":"2022-03-19","CENTER_NAME":"EARTH","MEAN_MOTION_DOT":"0.00000809","MEAN_MOTION_DDOT":"0.0000000000000","MEAN_ANOMALY":"269.8861","SEMIMAJOR_AXIS":"6917.892","ELEMENT_SET_NO":"999","MEAN_MOTION":"15.08836049","BSTAR":"0.00006889200000","RA_OF_ASC_NODE":"158.7279","APOAPSIS":"540.498","TLE_LINE2":"2 52120  53.2160 158.7279 0001070  90.2253 269.8861 15.08836049 72842","EPHEMERIS_TYPE":"0","OBJECT_ID":"2022-029AJ","CLASSIFICATION_TYPE":"U","NORAD_CAT_ID":"52120","MEAN_ELEMENT_THEORY":"SGP4","INCLINATION":"53.2160","OBJECT_NAME":"STARLINK-3534","DECAY_DATE":null},{"PERIOD":"95.438","TIME_SYSTEM":"UTC","ARG_OF_PERICENTER":"87.8037","SITE":"AFETR","ECCENTRICITY":"0.00011260","GP_ID":"234694290","REF_FRAME":"TEME","REV_AT_EPOCH":"7291","TLE_LINE1":"1 52121U 22029AK  23184.28158599  .00000688  00000-0  61293-4 0  9998","RCS_SIZE":"LARGE","FILE":"3948541","COUNTRY_CODE":"US","OBJECT_TYPE":"PAYLOAD","PERIAPSIS":"538.974","LAUNCH_DATE":"2022-03-19","CENTER_NAME":"EARTH","MEAN_MOTION_DOT":"0.00000688","EPOCH":"2023-07-03T06:45:29.029536","MEAN_ANOMALY":"272.3084","MEAN_MOTION_DDOT":"0.0000000000000","MEAN_MOTION":"15.08837612","SEMIMAJOR_AXIS":"6917.888","ELEMENT_SET_NO":"999","BSTAR":"0.00006129300000","APOAPSIS":"540.532","RA_OF_ASC_NODE":"150.3451","OBJECT_ID":"2022-029AK","CLASSIFICATION_TYPE":"U","TLE_LINE2":"2 52121  53.2167 150.3451 0001126  87.8037 272.3084 15.08837612 72915","EPHEMERIS_TYPE":"0","INCLINATION":"53.2167","MEAN_ELEMENT_THEORY":"SGP4","NORAD_CAT_ID":"52121","OBJECT_NAME":"STARLINK-3678","DECAY_DATE":null},{"NORAD_CAT_ID":"52122","MEAN_ELEMENT_THEORY":"SGP4","INCLINATION":"53.2159","OBJECT_NAME":"STARLINK-3726","DECAY_DATE":null,"RA_OF_ASC_NODE":"158.4649","APOAPSIS":"540.609","BSTAR":"0.00002687900000","EPHEMERIS_TYPE":"0","TLE_LINE2":"2 52122  53.2159 158.4649 0001229  89.9988 270.1145 15.08835570 72844","CLASSIFICATION_TYPE":"U","OBJECT_ID":"2022-029AL","EPOCH":"2023-07-03T16:48:16.201728","MEAN_MOTION_DOT":"0.00000140","CENTER_NAME":"EARTH","PERIAPSIS":"538.909","LAUNCH_DATE":"2022-03-19","OBJECT_TYPE":"PAYLOAD","COUNTRY_CODE":"US","SEMIMAJOR_AXIS":"6917.894","ELEMENT_SET_NO":"999","MEAN_MOTION":"15.08835570","MEAN_MOTION_DDOT":"0.0000000000000","MEAN_ANOMALY":"270.1145","REF_FRAME":"TEME","GP_ID":"234696827","ECCENTRICITY":"0.00012290","SITE":"AFETR","PERIOD":"95.438","ARG_OF_PERICENTER":"89.9988","TIME_SYSTEM":"UTC","FILE":"3948751","RCS_SIZE":"LARGE","TLE_LINE1":"1 52122U 22029AL  23184.70018752  .00000140  00000-0  26879-4 0  9996","REV_AT_EPOCH":"7284"},{"OBJECT_TYPE":"PAYLOAD","COUNTRY_CODE":"US","EPOCH":"2023-07-03T14:22:34.987584","MEAN_MOTION_DOT":"0.00000106","CENTER_NAME":"EARTH","PERIAPSIS":"538.867","LAUNCH_DATE":"2022-03-19","MEAN_MOTION_DDOT":"0.0000000000000","MEAN_ANOMALY":"278.7777","SEMIMAJOR_AXIS":"6917.895","ELEMENT_SET_NO":"999","MEAN_MOTION":"15.08835299","ECCENTRICITY":"0.00012900","SITE":"AFETR","ARG_OF_PERICENTER":"81.3361","PERIOD":"95.438","TIME_SYSTEM":"UTC","REF_FRAME":"TEME","GP_ID":"234697327","REV_AT_EPOCH":"7297","TLE_LINE1":"1 52123U 22029AM  23184.59901606  .00000106  00000-0  24768-4 0  9990","RCS_SIZE":"LARGE","FILE":"3948751","NORAD_CAT_ID":"52123","MEAN_ELEMENT_THEORY":"SGP4","INCLINATION":"53.2166","OBJECT_NAME":"STARLINK-3725","DECAY_DATE":null,"BSTAR":"0.00002476800000","RA_OF_ASC_NODE":"148.8525","APOAPSIS":"540.652","EPHEMERIS_TYPE":"0","TLE_LINE2":"2 52123  53.2166 148.8525 0001290  81.3361 278.7777 15.08835299 72975","CLASSIFICATION_TYPE":"U","OBJECT_ID":"2022-029AM"},{"DECAY_DATE":null,"OBJECT_NAME":"STARLINK-3684","MEAN_ELEMENT_THEORY":"SGP4","NORAD_CAT_ID":"52124","INCLINATION":"53.2164","EPHEMERIS_TYPE":"0","TLE_LINE2":"2 52124  53.2164 158.7951 0001175  83.7378 276.3748 15.08840626 72830","CLASSIFICATION_TYPE":"U","OBJECT_ID":"2022-029AN","BSTAR":"-0.00004632900000","RA_OF_ASC_NODE":"158.7951","APOAPSIS":"540.556","MEAN_MOTION_DDOT":"0.0000000000000","MEAN_ANOMALY":"276.3748","SEMIMAJOR_AXIS":"6917.878","ELEMENT_SET_NO":"999","MEAN_MOTION":"15.08840626","OBJECT_TYPE":"PAYLOAD","COUNTRY_CODE":"US","EPOCH":"2023-07-03T15:02:17.035584","MEAN_MOTION_DOT":"-0.00001025","CENTER_NAME":"EARTH","PERIAPSIS":"538.931","LAUNCH_DATE":"2022-03-19","RCS_SIZE":"LARGE","TLE_LINE1":"1 52124U 22029AN  23184.62658606 -.00001025  00000-0 -46329-4 0  9994","REV_AT_EPOCH":"7283","FILE":"3948863","ECCENTRICITY":"0.00011750","SITE":"AFETR","PERIOD":"95.438","ARG_OF_PERICENTER":"83.7378","TIME_SYSTEM":"UTC","REF_FRAME":"TEME","GP_ID":"234700207"}];
